{
"type": "FeatureCollection",
"name": "old_buildings_ratio",
"crs": { "type": "name", "properties": { "name": "urn:ogc:def:crs:OGC:1.3:CRS84" } },
"features": [
{ "type": "Feature", "properties": { "gid": "떎궗6190", "val": 655.0, "total_val": 1087.0, "ratio_pct": 60.3 }, "geometry": { "type": "Polygon", "coordinates": [ [ [ 127.056343698444792, 37.90903413972606 ], [ 127.056289565994632, 37.918046901729653 ], [ 127.067666454653335, 37.918089245120029 ], [ 127.067719199235512, 37.909076469465667 ], [ 127.056343698444792, 37.90903413972606 ] ] ] } },
{ "type": "Feature", "properties": { "gid": "떎궗7037", "val": 1526.0, "total_val": 2392.0, "ratio_pct": 63.8 }, "geometry": { "type": "Polygon", "coordinates": [ [ [ 127.160904634898884, 37.431673477881894 ], [ 127.160863965661548, 37.440687083900045 ], [ 127.172168327932312, 37.440718978441346 ], [ 127.172207641609248, 37.431705362094526 ], [ 127.160904634898884, 37.431673477881894 ] ] ] } },
{ "type": "Feature", "properties": { "gid": "떎궗4342", "val": 1292.0, "total_val": 2175.0, "ratio_pct": 59.4 }, "geometry": { "type": "Polygon", "coordinates": [ [ [ 126.855345604928303, 37.475469930945692 ], [ 126.855268167460494, 37.48448305617616 ], [ 126.866578613898866, 37.484544237391901 ], [ 126.866654693114612, 37.475531092357933 ], [ 126.855345604928303, 37.475469930945692 ] ] ] } },
{ "type": "Feature", "properties": { "gid": "떎궗4833", "val": 1177.0, "total_val": 2123.0, "ratio_pct": 55.4 }, "geometry": { "type": "Polygon", "coordinates": [ [ [ 126.912525779233178, 37.394645302806587 ], [ 126.912455415765095, 37.403658648582969 ], [ 126.923753822401238, 37.403714254053817 ], [ 126.923822832973173, 37.394700890264403 ], [ 126.912525779233178, 37.394645302806587 ] ] ] } },
{ "type": "Feature", "properties": { "gid": "떎궗5134", "val": 723.0, "total_val": 1039.0, "ratio_pct": 69.6 }, "geometry": { "type": "Polygon", "coordinates": [ [ [ 126.946350727281086, 37.403822226292526 ], [ 126.946284393012832, 37.412835611183766 ], [ 126.957584243592578, 37.412887994901737 ], [ 126.957649224319752, 37.403874593042545 ], [ 126.946350727281086, 37.403822226292526 ] ] ] } },
{ "type": "Feature", "properties": { "gid": "떎궗3741", "val": 790.0, "total_val": 1292.0, "ratio_pct": 61.1 }, "geometry": { "type": "Polygon", "coordinates": [ [ [ 126.78757736959237, 37.466067221388542 ], [ 126.787491821071256, 37.475080234389459 ], [ 126.798800693302539, 37.475147889486337 ], [ 126.798884884277754, 37.466134854584745 ], [ 126.78757736959237, 37.466067221388542 ] ] ] } },
{ "type": "Feature", "properties": { "gid": "떎궗7348", "val": 921.0, "total_val": 1478.0, "ratio_pct": 62.3 }, "geometry": { "type": "Polygon", "coordinates": [ [ [ 127.194410181068889, 37.530915123905977 ], [ 127.194373398763972, 37.539928607877144 ], [ 127.205692763101766, 37.539957361245364 ], [ 127.205728183164709, 37.530943867971672 ], [ 127.194410181068889, 37.530915123905977 ] ] ] } },
{ "type": "Feature", "properties": { "gid": "떎궗6738", "val": 3083.0, "total_val": 5007.0, "ratio_pct": 61.6 }, "geometry": { "type": "Polygon", "coordinates": [ [ [ 127.12695098996096, 37.440584913600084 ], [ 127.126906234167052, 37.449598472705944 ], [ 127.138211896415982, 37.449633621961375 ], [ 127.138255296072032, 37.440620051473879 ], [ 127.12695098996096, 37.440584913600084 ] ] ] } },
{ "type": "Feature", "properties": { "gid": "떎궗3643", "val": 1210.0, "total_val": 2346.0, "ratio_pct": 51.6 }, "geometry": { "type": "Polygon", "coordinates": [ [ [ 126.776096042186253, 37.484024473844848 ], [ 126.77600905869204, 37.493037436683494 ], [ 126.787320609684684, 37.493106218540731 ], [ 126.787406234441335, 37.484093233440596 ], [ 126.776096042186253, 37.484024473844848 ] ] ] } },
{ "type": "Feature", "properties": { "gid": "떎궗5621", "val": 1083.0, "total_val": 2287.0, "ratio_pct": 47.4 }, "geometry": { "type": "Polygon", "coordinates": [ [ [ 127.003615450625276, 37.28689694255872 ], [ 127.003556227973789, 37.295910588826032 ], [ 127.014838667279136, 37.295957375189069 ], [ 127.014896544135993, 37.286943713749302 ], [ 127.003615450625276, 37.28689694255872 ] ] ] } },
{ "type": "Feature", "properties": { "gid": "떎궗5821", "val": 787.0, "total_val": 1283.0, "ratio_pct": 61.3 }, "geometry": { "type": "Polygon", "coordinates": [ [ [ 127.026177663405747, 37.28698940984814 ], [ 127.026121132355541, 37.296003086111625 ], [ 127.037403622603833, 37.296047721586149 ], [ 127.037458807835577, 37.287034030847686 ], [ 127.026177663405747, 37.28698940984814 ] ] ] } },
{ "type": "Feature", "properties": { "gid": "떎諛6388", "val": 1072.0, "total_val": 1942.0, "ratio_pct": 55.2 }, "geometry": { "type": "Polygon", "coordinates": [ [ [ 127.084214713003973, 36.989740429563831 ], [ 127.084165637183148, 36.998754630039137 ], [ 127.095404145230134, 36.998793469606433 ], [ 127.095451894797336, 36.989779256497705 ], [ 127.084214713003973, 36.989740429563831 ] ] ] } },
{ "type": "Feature", "properties": { "gid": "떎궗6737", "val": 2247.0, "total_val": 4417.0, "ratio_pct": 50.9 }, "geometry": { "type": "Polygon", "coordinates": [ [ [ 127.126995725827371, 37.431571340668491 ], [ 127.12695098996096, 37.440584913600084 ], [ 127.138255296072032, 37.440620051473879 ], [ 127.138298676404403, 37.431606467163334 ], [ 127.126995725827371, 37.431571340668491 ] ] ] } },
{ "type": "Feature", "properties": { "gid": "떎궗5871", "val": 715.0, "total_val": 1156.0, "ratio_pct": 61.9 }, "geometry": { "type": "Polygon", "coordinates": [ [ [ 127.023320042584814, 37.737656252425779 ], [ 127.023262238348281, 37.746669235513131 ], [ 127.034612789408101, 37.746714599114476 ], [ 127.034669217518029, 37.737701601379655 ], [ 127.023320042584814, 37.737656252425779 ] ] ] } },
{ "type": "Feature", "properties": { "gid": "떎궗3742", "val": 1308.0, "total_val": 2033.0, "ratio_pct": 64.3 }, "geometry": { "type": "Polygon", "coordinates": [ [ [ 126.787491821071256, 37.475080234389459 ], [ 126.787406234441335, 37.484093233440596 ], [ 126.798716464823173, 37.48416091044335 ], [ 126.798800693302539, 37.475147889486337 ], [ 126.787491821071256, 37.475080234389459 ] ] ] } },
{ "type": "Feature", "properties": { "gid": "떎궗3743", "val": 1112.0, "total_val": 1834.0, "ratio_pct": 60.6 }, "geometry": { "type": "Polygon", "coordinates": [ [ [ 126.787406234441335, 37.484093233440596 ], [ 126.787320609684684, 37.493106218540731 ], [ 126.798632198821977, 37.493173917454534 ], [ 126.798716464823173, 37.48416091044335 ], [ 126.787406234441335, 37.484093233440596 ] ] ] } },
{ "type": "Feature", "properties": { "gid": "떎궗5972", "val": 1609.0, "total_val": 2195.0, "ratio_pct": 73.3 }, "geometry": { "type": "Polygon", "coordinates": [ [ [ 127.034612789408101, 37.746714599114476 ], [ 127.03455633614054, 37.755727582959651 ], [ 127.045908289110073, 37.755771867860808 ], [ 127.045963365625624, 37.746758869717652 ], [ 127.034612789408101, 37.746714599114476 ] ] ] } },
{ "type": "Feature", "properties": { "gid": "떎궗6837", "val": 1065.0, "total_val": 2011.0, "ratio_pct": 53.0 }, "geometry": { "type": "Polygon", "coordinates": [ [ [ 127.138298676404403, 37.431606467163334 ], [ 127.138255296072032, 37.440620051473879 ], [ 127.149559621506839, 37.440654108242398 ], [ 127.149601646296091, 37.431640512903016 ], [ 127.138298676404403, 37.431606467163334 ] ] ] } },
{ "type": "Feature", "properties": { "gid": "떎궗6072", "val": 802.0, "total_val": 1230.0, "ratio_pct": 65.2 }, "geometry": { "type": "Polygon", "coordinates": [ [ [ 127.045963365625624, 37.746758869717652 ], [ 127.045908289110073, 37.755771867860808 ], [ 127.057260266635382, 37.755815059403425 ], [ 127.057313966387284, 37.746802047315292 ], [ 127.045963365625624, 37.746758869717652 ] ] ] } },
{ "type": "Feature", "properties": { "gid": "떎궗5234", "val": 560.0, "total_val": 865.0, "ratio_pct": 64.7 }, "geometry": { "type": "Polygon", "coordinates": [ [ [ 126.957649224319752, 37.403874593042545 ], [ 126.957584243592578, 37.412887994901737 ], [ 126.968884123115032, 37.412939298678765 ], [ 126.968947750287526, 37.403925880201399 ], [ 126.957649224319752, 37.403874593042545 ] ] ] } },
{ "type": "Feature", "properties": { "gid": "떎궗6189", "val": 662.0, "total_val": 1063.0, "ratio_pct": 62.3 }, "geometry": { "type": "Polygon", "coordinates": [ [ [ 127.056397806759009, 37.900021363819391 ], [ 127.056343698444792, 37.90903413972606 ], [ 127.067719199235512, 37.909076469465667 ], [ 127.067771920300544, 37.900063679911497 ], [ 127.056397806759009, 37.900021363819391 ] ] ] } },
{ "type": "Feature", "properties": { "gid": "떎궗5872", "val": 438.0, "total_val": 679.0, "ratio_pct": 64.5 }, "geometry": { "type": "Polygon", "coordinates": [ [ [ 127.023262238348281, 37.746669235513131 ], [ 127.02320440834059, 37.755682204707334 ], [ 127.03455633614054, 37.755727582959651 ], [ 127.034612789408101, 37.746714599114476 ], [ 127.023262238348281, 37.746669235513131 ] ] ] } },
{ "type": "Feature", "properties": { "gid": "떎궗6838", "val": 2395.0, "total_val": 4090.0, "ratio_pct": 58.6 }, "geometry": { "type": "Polygon", "coordinates": [ [ [ 127.138255296072032, 37.440620051473879 ], [ 127.138211896415982, 37.449633621961375 ], [ 127.149517577997699, 37.44966768976137 ], [ 127.149559621506839, 37.440654108242398 ], [ 127.138255296072032, 37.440620051473879 ] ] ] } },
{ "type": "Feature", "properties": { "gid": "떎궗6937", "val": 1643.0, "total_val": 2430.0, "ratio_pct": 67.6 }, "geometry": { "type": "Polygon", "coordinates": [ [ [ 127.149601646296091, 37.431640512903016 ], [ 127.149559621506839, 37.440654108242398 ], [ 127.160863965661548, 37.440687083900045 ], [ 127.160904634898884, 37.431673477881894 ], [ 127.149601646296091, 37.431640512903016 ] ] ] } },
{ "type": "Feature", "properties": { "gid": "떎궗4634", "val": 528.0, "total_val": 692.0, "ratio_pct": 76.3 }, "geometry": { "type": "Polygon", "coordinates": [ [ [ 126.889858697112828, 37.403544198984228 ], [ 126.889785595352592, 37.412557493789038 ], [ 126.901085292176887, 37.412615277078288 ], [ 126.901157040468121, 37.403601963556646 ], [ 126.889858697112828, 37.403544198984228 ] ] ] } },
{ "type": "Feature", "properties": { "gid": "떎궗5720", "val": 1433.0, "total_val": 2264.0, "ratio_pct": 63.3 }, "geometry": { "type": "Polygon", "coordinates": [ [ [ 127.014954395233843, 37.277930038472753 ], [ 127.014896544135993, 37.286943713749302 ], [ 127.026177663405747, 37.28698940984814 ], [ 127.026234169295847, 37.277975719751353 ], [ 127.014954395233843, 37.277930038472753 ] ] ] } },
{ "type": "Feature", "properties": { "gid": "떎궗6855", "val": 1355.0, "total_val": 2275.0, "ratio_pct": 59.6 }, "geometry": { "type": "Polygon", "coordinates": [ [ [ 127.137514866469189, 37.593848868881274 ], [ 127.137471136916162, 37.602862204199859 ], [ 127.148799965652472, 37.60289645993489 ], [ 127.148842328750405, 37.593883113540329 ], [ 127.137514866469189, 37.593848868881274 ] ] ] } },
{ "type": "Feature", "properties": { "gid": "떎궗5971", "val": 1168.0, "total_val": 2171.0, "ratio_pct": 53.8 }, "geometry": { "type": "Polygon", "coordinates": [ [ [ 127.034669217518029, 37.737701601379655 ], [ 127.034612789408101, 37.746714599114476 ], [ 127.045963365625624, 37.746758869717652 ], [ 127.046018417596997, 37.73774585768826 ], [ 127.034669217518029, 37.737701601379655 ] ] ] } },
{ "type": "Feature", "properties": { "gid": "떎궗3642", "val": 1177.0, "total_val": 2086.0, "ratio_pct": 56.4 }, "geometry": { "type": "Polygon", "coordinates": [ [ [ 126.776182986948811, 37.475011497049955 ], [ 126.776096042186253, 37.484024473844848 ], [ 126.787406234441335, 37.484093233440596 ], [ 126.787491821071256, 37.475080234389459 ], [ 126.776182986948811, 37.475011497049955 ] ] ] } },
{ "type": "Feature", "properties": { "gid": "떎궗6053", "val": 1256.0, "total_val": 2316.0, "ratio_pct": 54.2 }, "geometry": { "type": "Polygon", "coordinates": [ [ [ 127.047005169229934, 37.575509267915038 ], [ 127.046950557075391, 37.584522529701054 ], [ 127.058276480718973, 37.584565456856701 ], [ 127.058329727716881, 37.575552181188655 ], [ 127.047005169229934, 37.575509267915038 ] ] ] } },
{ "type": "Feature", "properties": { "gid": "떎궗7051", "val": 526.0, "total_val": 751.0, "ratio_pct": 70.0 }, "geometry": { "type": "Polygon", "coordinates": [ [ [ 127.160333613907966, 37.557862704284709 ], [ 127.160292690268719, 37.56687611674684 ], [ 127.171616093914835, 37.566908156146319 ], [ 127.171655653514435, 37.55789473332127 ], [ 127.160333613907966, 37.557862704284709 ] ] ] } },
{ "type": "Feature", "properties": { "gid": "떎궗4740", "val": 1317.0, "total_val": 2630.0, "ratio_pct": 50.1 }, "geometry": { "type": "Polygon", "coordinates": [ [ [ 126.90072607107065, 37.457681636263843 ], [ 126.90065413081426, 37.466694866407963 ], [ 126.911961993167168, 37.466751680094823 ], [ 126.912032576318708, 37.457738431557601 ], [ 126.90072607107065, 37.457681636263843 ] ] ] } },
{ "type": "Feature", "properties": { "gid": "떎궗5552", "val": 1050.0, "total_val": 2740.0, "ratio_pct": 38.3 }, "geometry": { "type": "Polygon", "coordinates": [ [ [ 126.990444164223675, 37.566265205987769 ], [ 126.990382753828527, 37.575278406975002 ], [ 127.001707184611035, 37.575326751747376 ], [ 127.001767230517757, 37.566313535124891 ], [ 126.990444164223675, 37.566265205987769 ] ] ] } },
{ "type": "Feature", "properties": { "gid": "떎궗5348", "val": 631.0, "total_val": 914.0, "ratio_pct": 69.0 }, "geometry": { "type": "Polygon", "coordinates": [ [ [ 126.96805438609303, 37.530112476420065 ], [ 126.967990360948406, 37.539125700630464 ], [ 126.979309282188609, 37.539176152619447 ], [ 126.979371945299803, 37.530162912086709 ], [ 126.96805438609303, 37.530112476420065 ] ] ] } },
{ "type": "Feature", "properties": { "gid": "떎궗6749", "val": 1288.0, "total_val": 2944.0, "ratio_pct": 43.8 }, "geometry": { "type": "Polygon", "coordinates": [ [ [ 127.12645757815325, 37.539733303093648 ], [ 127.126412602537656, 37.548746710039794 ], [ 127.137733222234459, 37.548781984671137 ], [ 127.137776835051753, 37.539768566313683 ], [ 127.12645757815325, 37.539733303093648 ] ] ] } },
{ "type": "Feature", "properties": { "gid": "떎궗4952", "val": 1085.0, "total_val": 1871.0, "ratio_pct": 58.0 }, "geometry": { "type": "Polygon", "coordinates": [ [ [ 126.922506362118568, 37.56595242703029 ], [ 126.9224367650734, 37.574965526829061 ], [ 126.933761022547614, 37.575020389133414 ], [ 126.933829255185969, 37.566007271591708 ], [ 126.922506362118568, 37.56595242703029 ] ] ] } },
{ "type": "Feature", "properties": { "gid": "떎궗5858", "val": 1270.0, "total_val": 2305.0, "ratio_pct": 55.1 }, "geometry": { "type": "Polygon", "coordinates": [ [ [ 127.024069158023181, 37.62048620853416 ], [ 127.0240116877048, 37.629499372128215 ], [ 127.035344396864517, 37.629544545584778 ], [ 127.035400499005178, 37.620531367388558 ], [ 127.024069158023181, 37.62048620853416 ] ] ] } },
{ "type": "Feature", "properties": { "gid": "떎궗6048", "val": 958.0, "total_val": 1574.0, "ratio_pct": 60.9 }, "geometry": { "type": "Polygon", "coordinates": [ [ [ 127.04727786535851, 37.530442751041853 ], [ 127.047223374713866, 37.539456082138351 ], [ 127.058542478651546, 37.539498939916847 ], [ 127.05859560717677, 37.530485594954797 ], [ 127.04727786535851, 37.530442751041853 ] ] ] } },
{ "type": "Feature", "properties": { "gid": "떎궗5342", "val": 1109.0, "total_val": 3031.0, "ratio_pct": 36.6 }, "geometry": { "type": "Polygon", "coordinates": [ [ [ 126.968437938645678, 37.476032839636488 ], [ 126.968374084381239, 37.485046147132721 ], [ 126.979684842513024, 37.4850965012457 ], [ 126.979747338378886, 37.47608317745032 ], [ 126.968437938645678, 37.476032839636488 ] ] ] } },
{ "type": "Feature", "properties": { "gid": "떎궗5349", "val": 1327.0, "total_val": 1980.0, "ratio_pct": 67.0 }, "geometry": { "type": "Polygon", "coordinates": [ [ [ 126.967990360948406, 37.539125700630464 ], [ 126.967926307276826, 37.548138910955771 ], [ 126.979246591157263, 37.548189379270944 ], [ 126.979309282188609, 37.539176152619447 ], [ 126.967990360948406, 37.539125700630464 ] ] ] } },
{ "type": "Feature", "properties": { "gid": "떎궗4942", "val": 1076.0, "total_val": 3021.0, "ratio_pct": 35.6 }, "geometry": { "type": "Polygon", "coordinates": [ [ [ 126.923200630092609, 37.475820664464294 ], [ 126.923131342370482, 37.484833903259414 ], [ 126.934441983085549, 37.484888588323557 ], [ 126.934509912464307, 37.475875331827488 ], [ 126.923200630092609, 37.475820664464294 ] ] ] } },
{ "type": "Feature", "properties": { "gid": "떎궗6354", "val": 1298.0, "total_val": 3625.0, "ratio_pct": 35.8 }, "geometry": { "type": "Polygon", "coordinates": [ [ [ 127.08092839858196, 37.584648051141379 ], [ 127.080877859419175, 37.593661339663292 ], [ 127.09220521821959, 37.593701019609497 ], [ 127.092254391584746, 37.584687718256717 ], [ 127.08092839858196, 37.584648051141379 ] ] ] } },
{ "type": "Feature", "properties": { "gid": "떎궗5953", "val": 1920.0, "total_val": 2686.0, "ratio_pct": 71.5 }, "geometry": { "type": "Polygon", "coordinates": [ [ [ 127.035680635067891, 37.57546526832671 ], [ 127.035624657768153, 37.584478515879319 ], [ 127.046950557075391, 37.584522529701054 ], [ 127.047005169229934, 37.575509267915038 ], [ 127.035680635067891, 37.57546526832671 ] ] ] } },
{ "type": "Feature", "properties": { "gid": "떎궗5751", "val": 1184.0, "total_val": 2508.0, "ratio_pct": 47.2 }, "geometry": { "type": "Polygon", "coordinates": [ [ [ 127.013148978825129, 37.557347532548825 ], [ 127.013090323556071, 37.566360778328885 ], [ 127.02441344273096, 37.566406935591907 ], [ 127.024470734094336, 37.557393674882732 ], [ 127.013148978825129, 37.557347532548825 ] ] ] } },
{ "type": "Feature", "properties": { "gid": "떎궗6057", "val": 1011.0, "total_val": 1770.0, "ratio_pct": 57.1 }, "geometry": { "type": "Polygon", "coordinates": [ [ [ 127.046786574547738, 37.611562231861015 ], [ 127.046731864978909, 37.620575438177774 ], [ 127.058063255334943, 37.620618420894459 ], [ 127.058116597312207, 37.61160520068249 ], [ 127.046786574547738, 37.611562231861015 ] ] ] } },
{ "type": "Feature", "properties": { "gid": "떎궗5759", "val": 1504.0, "total_val": 3270.0, "ratio_pct": 46.0 }, "geometry": { "type": "Polygon", "coordinates": [ [ [ 127.012679004158358, 37.629453110262148 ], [ 127.012620139451357, 37.638466245020489 ], [ 127.023954191773143, 37.638512521844063 ], [ 127.0240116877048, 37.629499372128215 ], [ 127.012679004158358, 37.629453110262148 ] ] ] } },
{ "type": "Feature", "properties": { "gid": "떎궗6343", "val": 564.0, "total_val": 815.0, "ratio_pct": 69.2 }, "geometry": { "type": "Polygon", "coordinates": [ [ [ 127.081482845949168, 37.485500963162913 ], [ 127.081432553829757, 37.494514404036437 ], [ 127.092744922266803, 37.49455394301053 ], [ 127.092793855264418, 37.485540489339577 ], [ 127.081482845949168, 37.485500963162913 ] ] ] } },
{ "type": "Feature", "properties": { "gid": "떎궗4746", "val": 1051.0, "total_val": 2005.0, "ratio_pct": 52.4 }, "geometry": { "type": "Polygon", "coordinates": [ [ [ 126.900293948528656, 37.511760808597209 ], [ 126.900221815765235, 37.520773955320379 ], [ 126.911537833451092, 37.520830879457328 ], [ 126.911608605478591, 37.511817714314908 ], [ 126.900293948528656, 37.511760808597209 ] ] ] } },
{ "type": "Feature", "properties": { "gid": "떎궗5758", "val": 1825.0, "total_val": 3875.0, "ratio_pct": 47.1 }, "geometry": { "type": "Polygon", "coordinates": [ [ [ 127.012737842642395, 37.62043996162204 ], [ 127.012679004158358, 37.629453110262148 ], [ 127.0240116877048, 37.629499372128215 ], [ 127.024069158023181, 37.62048620853416 ], [ 127.012737842642395, 37.62043996162204 ] ] ] } },
{ "type": "Feature", "properties": { "gid": "떎궗5045", "val": 1199.0, "total_val": 2311.0, "ratio_pct": 51.9 }, "geometry": { "type": "Polygon", "coordinates": [ [ [ 126.934306033528415, 37.502915059644288 ], [ 126.934238013321547, 37.511928274466548 ], [ 126.945552763002766, 37.511981928882179 ], [ 126.94561942303595, 37.502968696697096 ], [ 126.934306033528415, 37.502915059644288 ] ] ] } },
{ "type": "Feature", "properties": { "gid": "떎궗4854", "val": 1506.0, "total_val": 2797.0, "ratio_pct": 53.8 }, "geometry": { "type": "Polygon", "coordinates": [ [ [ 126.911041545553886, 37.583922646094244 ], [ 126.910970520860829, 37.592935699976657 ], [ 126.922297477930982, 37.592991684706874 ], [ 126.92236713701574, 37.583978612721644 ], [ 126.911041545553886, 37.583922646094244 ] ] ] } },
{ "type": "Feature", "properties": { "gid": "떎궗5350", "val": 1123.0, "total_val": 1863.0, "ratio_pct": 60.3 }, "geometry": { "type": "Polygon", "coordinates": [ [ [ 126.967926307276826, 37.548138910955771 ], [ 126.967862225064863, 37.557152107394778 ], [ 126.979183872192635, 37.557202592040028 ], [ 126.979246591157263, 37.548189379270944 ], [ 126.967926307276826, 37.548138910955771 ] ] ] } },
{ "type": "Feature", "properties": { "gid": "떎궗5548", "val": 1618.0, "total_val": 2807.0, "ratio_pct": 57.6 }, "geometry": { "type": "Polygon", "coordinates": [ [ [ 126.990689532413541, 37.530212263240749 ], [ 126.99062823134895, 37.539225519744853 ], [ 127.00194720782261, 37.539273801998519 ], [ 127.002007146827793, 37.530260529873999 ], [ 126.990689532413541, 37.530212263240749 ] ] ] } },
{ "type": "Feature", "properties": { "gid": "떎궗5957", "val": 1097.0, "total_val": 2014.0, "ratio_pct": 54.5 }, "geometry": { "type": "Polygon", "coordinates": [ [ [ 127.035456576154075, 37.611518175318757 ], [ 127.035400499005178, 37.620531367388558 ], [ 127.046731864978909, 37.620575438177774 ], [ 127.046786574547738, 37.611562231861015 ], [ 127.035456576154075, 37.611518175318757 ] ] ] } },
{ "type": "Feature", "properties": { "gid": "떎궗5851", "val": 1039.0, "total_val": 2247.0, "ratio_pct": 46.2 }, "geometry": { "type": "Polygon", "coordinates": [ [ [ 127.024470734094336, 37.557393674882732 ], [ 127.02441344273096, 37.566406935591907 ], [ 127.035736587434698, 37.566452006906289 ], [ 127.035792514880399, 37.55743873161925 ], [ 127.024470734094336, 37.557393674882732 ] ] ] } },
{ "type": "Feature", "properties": { "gid": "떎궗4745", "val": 1150.0, "total_val": 2751.0, "ratio_pct": 41.8 }, "geometry": { "type": "Polygon", "coordinates": [ [ [ 126.900366049169861, 37.502747647967553 ], [ 126.900293948528656, 37.511760808597209 ], [ 126.911608605478591, 37.511817714314908 ], [ 126.911679345989739, 37.502804535270364 ], [ 126.900366049169861, 37.502747647967553 ] ] ] } },
{ "type": "Feature", "properties": { "gid": "떎궗5653", "val": 1209.0, "total_val": 2372.0, "ratio_pct": 51.0 }, "geometry": { "type": "Polygon", "coordinates": [ [ [ 127.001707184611035, 37.575326751747376 ], [ 127.001647111947491, 37.584339954491426 ], [ 127.012972934595922, 37.584387228266934 ], [ 127.013031642150438, 37.575374010235315 ], [ 127.001707184611035, 37.575326751747376 ] ] ] } },
{ "type": "Feature", "properties": { "gid": "떎궗5652", "val": 1292.0, "total_val": 2628.0, "ratio_pct": 49.2 }, "geometry": { "type": "Polygon", "coordinates": [ [ [ 127.001767230517757, 37.566313535124891 ], [ 127.001707184611035, 37.575326751747376 ], [ 127.013031642150438, 37.575374010235315 ], [ 127.013090323556071, 37.566360778328885 ], [ 127.001767230517757, 37.566313535124891 ] ] ] } },
{ "type": "Feature", "properties": { "gid": "떎궗4858", "val": 1565.0, "total_val": 2988.0, "ratio_pct": 52.4 }, "geometry": { "type": "Polygon", "coordinates": [ [ [ 126.910757256820645, 37.619974778142108 ], [ 126.910686105437122, 37.628987776366053 ], [ 126.922018531028144, 37.629043833550512 ], [ 126.922088314367741, 37.620030817206562 ], [ 126.910757256820645, 37.619974778142108 ] ] ] } },
{ "type": "Feature", "properties": { "gid": "떎궗5251", "val": 1363.0, "total_val": 2494.0, "ratio_pct": 54.7 }, "geometry": { "type": "Polygon", "coordinates": [ [ [ 126.956540606490933, 37.557100537192163 ], [ 126.956475131883863, 37.566113703058534 ], [ 126.967798114299043, 37.566165289946298 ], [ 126.967862225064863, 37.557152107394778 ], [ 126.956540606490933, 37.557100537192163 ] ] ] } },
{ "type": "Feature", "properties": { "gid": "떎궗6648", "val": 1016.0, "total_val": 2281.0, "ratio_pct": 44.5 }, "geometry": { "type": "Polygon", "coordinates": [ [ [ 127.115184659052346, 37.530683545892714 ], [ 127.115138341285601, 37.539696954917737 ], [ 127.12645757815325, 37.539733303093648 ], [ 127.126502533738005, 37.530719882309029 ], [ 127.115184659052346, 37.530683545892714 ] ] ] } },
{ "type": "Feature", "properties": { "gid": "떎궗6454", "val": 1096.0, "total_val": 2777.0, "ratio_pct": 39.5 }, "geometry": { "type": "Polygon", "coordinates": [ [ [ 127.092254391584746, 37.584687718256717 ], [ 127.09220521821959, 37.593701019609497 ], [ 127.103532598933413, 37.593739612510703 ], [ 127.103580406490607, 37.584726298678561 ], [ 127.092254391584746, 37.584687718256717 ] ] ] } },
{ "type": "Feature", "properties": { "gid": "떎궗5760", "val": 1330.0, "total_val": 3022.0, "ratio_pct": 44.0 }, "geometry": { "type": "Polygon", "coordinates": [ [ [ 127.012620139451357, 37.638466245020489 ], [ 127.012561248509016, 37.647479365895876 ], [ 127.023896670216146, 37.647525657680518 ], [ 127.023954191773143, 37.638512521844063 ], [ 127.012620139451357, 37.638466245020489 ] ] ] } },
{ "type": "Feature", "properties": { "gid": "떎궗4744", "val": 1098.0, "total_val": 2257.0, "ratio_pct": 48.6 }, "geometry": { "type": "Polygon", "coordinates": [ [ [ 126.900438117703928, 37.493734473432589 ], [ 126.900366049169861, 37.502747647967553 ], [ 126.911679345989739, 37.502804535270364 ], [ 126.911750054999359, 37.493791342324883 ], [ 126.900438117703928, 37.493734473432589 ] ] ] } },
{ "type": "Feature", "properties": { "gid": "떎궗5857", "val": 1728.0, "total_val": 3502.0, "ratio_pct": 49.3 }, "geometry": { "type": "Polygon", "coordinates": [ [ [ 127.024126602740367, 37.611473031063021 ], [ 127.024069158023181, 37.62048620853416 ], [ 127.035400499005178, 37.620531367388558 ], [ 127.035456576154075, 37.611518175318757 ], [ 127.024126602740367, 37.611473031063021 ] ] ] } },
{ "type": "Feature", "properties": { "gid": "떎궗6360", "val": 592.0, "total_val": 684.0, "ratio_pct": 86.5 }, "geometry": { "type": "Polygon", "coordinates": [ [ [ 127.080624825562154, 37.638727574393577 ], [ 127.080574151107683, 37.647740779755701 ], [ 127.091909717484924, 37.647780536751128 ], [ 127.091959022485753, 37.638767318539813 ], [ 127.080624825562154, 37.638727574393577 ] ] ] } },
{ "type": "Feature", "properties": { "gid": "떎궗6150", "val": 535.0, "total_val": 884.0, "ratio_pct": 60.5 }, "geometry": { "type": "Polygon", "coordinates": [ [ [ 127.058489326454108, 37.548512271022425 ], [ 127.058436150573272, 37.557525588270366 ], [ 127.069758004265225, 37.557567388170561 ], [ 127.069809816801452, 37.548554057401638 ], [ 127.058489326454108, 37.548512271022425 ] ] ] } },
{ "type": "Feature", "properties": { "gid": "떎궗4739", "val": 1562.0, "total_val": 2830.0, "ratio_pct": 55.2 }, "geometry": { "type": "Polygon", "coordinates": [ [ [ 126.900797979295291, 37.448668392220455 ], [ 126.90072607107065, 37.457681636263843 ], [ 126.912032576318708, 37.457738431557601 ], [ 126.912103128042688, 37.448725169125453 ], [ 126.900797979295291, 37.448668392220455 ] ] ] } },
{ "type": "Feature", "properties": { "gid": "떎궗4957", "val": 1081.0, "total_val": 2217.0, "ratio_pct": 48.8 }, "geometry": { "type": "Polygon", "coordinates": [ [ [ 126.922158066621606, 37.611017786950505 ], [ 126.922088314367741, 37.620030817206562 ], [ 126.933419403000499, 37.620085768288853 ], [ 126.93348778780512, 37.61107272026878 ], [ 126.922158066621606, 37.611017786950505 ] ] ] } },
{ "type": "Feature", "properties": { "gid": "떎궗6155", "val": 1203.0, "total_val": 2463.0, "ratio_pct": 48.8 }, "geometry": { "type": "Polygon", "coordinates": [ [ [ 127.058223209993031, 37.593578718662442 ], [ 127.058169915527827, 37.60259196660477 ], [ 127.06949859506031, 37.602633834158055 ], [ 127.069550523140776, 37.593620572678695 ], [ 127.058223209993031, 37.593578718662442 ] ] ] } },
{ "type": "Feature", "properties": { "gid": "떎궗6353", "val": 1351.0, "total_val": 3391.0, "ratio_pct": 39.8 }, "geometry": { "type": "Polygon", "coordinates": [ [ [ 127.080978915233345, 37.575634748763505 ], [ 127.08092839858196, 37.584648051141379 ], [ 127.092254391584746, 37.584687718256717 ], [ 127.092303543046796, 37.575674403051032 ], [ 127.080978915233345, 37.575634748763505 ] ] ] } },
{ "type": "Feature", "properties": { "gid": "떎궗6951", "val": 392.0, "total_val": 533.0, "ratio_pct": 73.5 }, "geometry": { "type": "Polygon", "coordinates": [ [ [ 127.149011592528723, 37.557829589573018 ], [ 127.148969304858397, 37.566842991320911 ], [ 127.160292690268719, 37.56687611674684 ], [ 127.160333613907966, 37.557862704284709 ], [ 127.149011592528723, 37.557829589573018 ] ] ] } },
{ "type": "Feature", "properties": { "gid": "떎궗5551", "val": 1399.0, "total_val": 2847.0, "ratio_pct": 49.1 }, "geometry": { "type": "Polygon", "coordinates": [ [ [ 126.990505547266878, 37.557251991119536 ], [ 126.990444164223675, 37.566265205987769 ], [ 127.001767230517757, 37.566313535124891 ], [ 127.001827249680176, 37.557300304625137 ], [ 126.990505547266878, 37.557251991119536 ] ] ] } },
{ "type": "Feature", "properties": { "gid": "떎궗5752", "val": 1300.0, "total_val": 2542.0, "ratio_pct": 51.1 }, "geometry": { "type": "Polygon", "coordinates": [ [ [ 127.013090323556071, 37.566360778328885 ], [ 127.013031642150438, 37.575374010235315 ], [ 127.024356125838707, 37.575420182430982 ], [ 127.02441344273096, 37.566406935591907 ], [ 127.013090323556071, 37.566360778328885 ] ] ] } },
{ "type": "Feature", "properties": { "gid": "떎궗4857", "val": 1121.0, "total_val": 3124.0, "ratio_pct": 35.9 }, "geometry": { "type": "Polygon", "coordinates": [ [ [ 126.910828376509144, 37.610961766001793 ], [ 126.910757256820645, 37.619974778142108 ], [ 126.922088314367741, 37.620030817206562 ], [ 126.922158066621606, 37.611017786950505 ], [ 126.910828376509144, 37.610961766001793 ] ] ] } },
{ "type": "Feature", "properties": { "gid": "떎궗5247", "val": 543.0, "total_val": 755.0, "ratio_pct": 71.9 }, "geometry": { "type": "Polygon", "coordinates": [ [ [ 126.956802213444377, 37.521047734824158 ], [ 126.956736855399811, 37.530060956249159 ], [ 126.96805438609303, 37.530112476420065 ], [ 126.968118382724114, 37.521099238325732 ], [ 126.956802213444377, 37.521047734824158 ] ] ] } },
{ "type": "Feature", "properties": { "gid": "떎궗4148", "val": 1107.0, "total_val": 2909.0, "ratio_pct": 38.1 }, "geometry": { "type": "Polygon", "coordinates": [ [ [ 126.832246073123954, 37.529422659658003 ], [ 126.832165704707009, 37.538435660627457 ], [ 126.843484243577038, 37.538499130275738 ], [ 126.843563250140519, 37.529486108772844 ], [ 126.832246073123954, 37.529422659658003 ] ] ] } },
{ "type": "Feature", "properties": { "gid": "떎궗6156", "val": 1091.0, "total_val": 2565.0, "ratio_pct": 42.5 }, "geometry": { "type": "Polygon", "coordinates": [ [ [ 127.058169915527827, 37.60259196660477 ], [ 127.058116597312207, 37.61160520068249 ], [ 127.06944664383829, 37.611647081776049 ], [ 127.06949859506031, 37.602633834158055 ], [ 127.058169915527827, 37.60259196660477 ] ] ] } },
{ "type": "Feature", "properties": { "gid": "떎궗5449", "val": 1268.0, "total_val": 2203.0, "ratio_pct": 57.6 }, "geometry": { "type": "Polygon", "coordinates": [ [ [ 126.979309282188609, 37.539176152619447 ], [ 126.979246591157263, 37.548189379270944 ], [ 126.990566902971011, 37.548238762371511 ], [ 126.99062823134895, 37.539225519744853 ], [ 126.979309282188609, 37.539176152619447 ] ] ] } },
{ "type": "Feature", "properties": { "gid": "떎궗5651", "val": 1381.0, "total_val": 2879.0, "ratio_pct": 48.0 }, "geometry": { "type": "Polygon", "coordinates": [ [ [ 127.001827249680176, 37.557300304625137 ], [ 127.001767230517757, 37.566313535124891 ], [ 127.013090323556071, 37.566360778328885 ], [ 127.013148978825129, 37.557347532548825 ], [ 127.001827249680176, 37.557300304625137 ] ] ] } },
{ "type": "Feature", "properties": { "gid": "떎궗6455", "val": 1129.0, "total_val": 2471.0, "ratio_pct": 45.7 }, "geometry": { "type": "Polygon", "coordinates": [ [ [ 127.09220521821959, 37.593701019609497 ], [ 127.092156022941026, 37.602714307108236 ], [ 127.103484770071461, 37.602752912491788 ], [ 127.103532598933413, 37.593739612510703 ], [ 127.09220521821959, 37.593701019609497 ] ] ] } },
{ "type": "Feature", "properties": { "gid": "떎궗5954", "val": 1134.0, "total_val": 2209.0, "ratio_pct": 51.3 }, "geometry": { "type": "Polygon", "coordinates": [ [ [ 127.035624657768153, 37.584478515879319 ], [ 127.035568655523818, 37.593491749562972 ], [ 127.046895920584504, 37.593535777621497 ], [ 127.046950557075391, 37.584522529701054 ], [ 127.035624657768153, 37.584478515879319 ] ] ] } },
{ "type": "Feature", "properties": { "gid": "떎궗6056", "val": 1222.0, "total_val": 2199.0, "ratio_pct": 55.6 }, "geometry": { "type": "Polygon", "coordinates": [ [ [ 127.04684125974579, 37.602549011675201 ], [ 127.046786574547738, 37.611562231861015 ], [ 127.058116597312207, 37.61160520068249 ], [ 127.058169915527827, 37.60259196660477 ], [ 127.04684125974579, 37.602549011675201 ] ] ] } },
{ "type": "Feature", "properties": { "gid": "떎궗5547", "val": 1376.0, "total_val": 2158.0, "ratio_pct": 63.8 }, "geometry": { "type": "Polygon", "coordinates": [ [ [ 126.990750806177687, 37.521198992860363 ], [ 126.990689532413541, 37.530212263240749 ], [ 127.002007146827793, 37.530260529873999 ], [ 127.002067059139051, 37.521247243876893 ], [ 126.990750806177687, 37.521198992860363 ] ] ] } },
{ "type": "Feature", "properties": { "gid": "떎궗4743", "val": 1097.0, "total_val": 2384.0, "ratio_pct": 46.0 }, "geometry": { "type": "Polygon", "coordinates": [ [ [ 126.900510154145962, 37.484721284993533 ], [ 126.900438117703928, 37.493734473432589 ], [ 126.911750054999359, 37.493791342324883 ], [ 126.911820732522258, 37.484778135479665 ], [ 126.900510154145962, 37.484721284993533 ] ] ] } },
{ "type": "Feature", "properties": { "gid": "떎궗5250", "val": 1087.0, "total_val": 2801.0, "ratio_pct": 38.8 }, "geometry": { "type": "Polygon", "coordinates": [ [ [ 126.956606051936816, 37.548087357434348 ], [ 126.956540606490933, 37.557100537192163 ], [ 126.967862225064863, 37.557152107394778 ], [ 126.967926307276826, 37.548138910955771 ], [ 126.956606051936816, 37.548087357434348 ] ] ] } },
{ "type": "Feature", "properties": { "gid": "떎궗4544", "val": 1041.0, "total_val": 2479.0, "ratio_pct": 42.0 }, "geometry": { "type": "Polygon", "coordinates": [ [ [ 126.877814339994501, 37.49361748651517 ], [ 126.877739552457086, 37.502630623177303 ], [ 126.889052784457107, 37.502689677266666 ], [ 126.889126212500543, 37.493676521492823 ], [ 126.877814339994501, 37.49361748651517 ] ] ] } },
{ "type": "Feature", "properties": { "gid": "떎궗6148", "val": 1104.0, "total_val": 1952.0, "ratio_pct": 56.6 }, "geometry": { "type": "Polygon", "coordinates": [ [ [ 127.05859560717677, 37.530485594954797 ], [ 127.058542478651546, 37.539498939916847 ], [ 127.069861606261455, 37.539540712778283 ], [ 127.069913372656117, 37.530527354301668 ], [ 127.05859560717677, 37.530485594954797 ] ] ] } },
{ "type": "Feature", "properties": { "gid": "떎궗4958", "val": 1039.0, "total_val": 2298.0, "ratio_pct": 45.2 }, "geometry": { "type": "Polygon", "coordinates": [ [ [ 126.922088314367741, 37.620030817206562 ], [ 126.922018531028144, 37.629043833550512 ], [ 126.933350987719535, 37.629098802401074 ], [ 126.933419403000499, 37.620085768288853 ], [ 126.922088314367741, 37.620030817206562 ] ] ] } },
{ "type": "Feature", "properties": { "gid": "떎궗4845", "val": 1161.0, "total_val": 2261.0, "ratio_pct": 51.3 }, "geometry": { "type": "Polygon", "coordinates": [ [ [ 126.911679345989739, 37.502804535270364 ], [ 126.911608605478591, 37.511817714314908 ], [ 126.922923293944848, 37.511873536274436 ], [ 126.922992674311118, 37.502860339165686 ], [ 126.911679345989739, 37.502804535270364 ] ] ] } },
{ "type": "Feature", "properties": { "gid": "떎궗2646", "val": 1311.0, "total_val": 2311.0, "ratio_pct": 56.7 }, "geometry": { "type": "Polygon", "coordinates": [ [ [ 126.662694505791876, 37.510315458667989 ], [ 126.662593801504414, 37.519328137569545 ], [ 126.673909017026261, 37.519407825539517 ], [ 126.674008360955099, 37.510395120853886 ], [ 126.662694505791876, 37.510315458667989 ] ] ] } },
{ "type": "Feature", "properties": { "gid": "떎궗2745", "val": 601.0, "total_val": 936.0, "ratio_pct": 64.2 }, "geometry": { "type": "Polygon", "coordinates": [ [ [ 126.674107660646314, 37.501382402157084 ], [ 126.674008360955099, 37.510395120853886 ], [ 126.685322260355889, 37.510473699517192 ], [ 126.685420200273313, 37.501460955392979 ], [ 126.674107660646314, 37.501382402157084 ] ] ] } },
{ "type": "Feature", "properties": { "gid": "떎궗2539", "val": 1016.0, "total_val": 2153.0, "ratio_pct": 47.2 }, "geometry": { "type": "Polygon", "coordinates": [ [ [ 126.652093876475348, 37.447145751018695 ], [ 126.651992129543885, 37.456158501923191 ], [ 126.663297790546508, 37.456239090939974 ], [ 126.663398181373708, 37.447226313944007 ], [ 126.652093876475348, 37.447145751018695 ] ] ] } },
{ "type": "Feature", "properties": { "gid": "떎궗2839", "val": 1099.0, "total_val": 2006.0, "ratio_pct": 54.8 }, "geometry": { "type": "Polygon", "coordinates": [ [ [ 126.686006924654592, 37.447384196609818 ], [ 126.685909246098561, 37.45639702473855 ], [ 126.697215039440167, 37.456474369494217 ], [ 126.697311361829804, 37.447461516324218 ], [ 126.686006924654592, 37.447384196609818 ] ] ] } },
{ "type": "Feature", "properties": { "gid": "떎궗1072", "val": 1083.0, "total_val": 1635.0, "ratio_pct": 66.2 }, "geometry": { "type": "Polygon", "coordinates": [ [ [ 126.478477394656821, 37.743206606567639 ], [ 126.478353500827993, 37.752218457497584 ], [ 126.489703498898521, 37.75231630437635 ], [ 126.489826016900594, 37.743304421858141 ], [ 126.478477394656821, 37.743206606567639 ] ] ] } },
{ "type": "Feature", "properties": { "gid": "떎궗2739", "val": 1693.0, "total_val": 2729.0, "ratio_pct": 62.0 }, "geometry": { "type": "Polygon", "coordinates": [ [ [ 126.674702530967977, 37.447305795812085 ], [ 126.67460349626603, 37.456318598549473 ], [ 126.685909246098561, 37.45639702473855 ], [ 126.686006924654592, 37.447384196609818 ], [ 126.674702530967977, 37.447305795812085 ] ] ] } },
{ "type": "Feature", "properties": { "gid": "떎궗2740", "val": 1031.0, "total_val": 2040.0, "ratio_pct": 50.5 }, "geometry": { "type": "Polygon", "coordinates": [ [ [ 126.67460349626603, 37.456318598549473 ], [ 126.674504417451061, 37.465331387283264 ], [ 126.685811524033468, 37.465409838869689 ], [ 126.685909246098561, 37.45639702473855 ], [ 126.67460349626603, 37.456318598549473 ] ] ] } },
{ "type": "Feature", "properties": { "gid": "떎궗2941", "val": 1529.0, "total_val": 2518.0, "ratio_pct": 60.7 }, "geometry": { "type": "Polygon", "coordinates": [ [ [ 126.697118674145415, 37.465487208672535 ], [ 126.697022265925369, 37.474500033857922 ], [ 126.708330816357318, 37.474576346567282 ], [ 126.708425867182626, 37.465563496679039 ], [ 126.697118674145415, 37.465487208672535 ] ] ] } },
{ "type": "Feature", "properties": { "gid": "떎궗2341", "val": 1236.0, "total_val": 2847.0, "ratio_pct": 43.4 }, "geometry": { "type": "Polygon", "coordinates": [ [ [ 126.629276438500682, 37.465006763364265 ], [ 126.629171886345802, 37.474019432977499 ], [ 126.640480170037563, 37.474102238370818 ], [ 126.640583364923003, 37.46508954195334 ], [ 126.629276438500682, 37.465006763364265 ] ] ] } },
{ "type": "Feature", "properties": { "gid": "떎궗2744", "val": 856.0, "total_val": 1375.0, "ratio_pct": 62.3 }, "geometry": { "type": "Polygon", "coordinates": [ [ [ 126.674206916120738, 37.492369669450348 ], [ 126.674107660646314, 37.501382402157084 ], [ 126.685420200273313, 37.501460955392979 ], [ 126.685518096579273, 37.492448197264849 ], [ 126.674206916120738, 37.492369669450348 ] ] ] } },
{ "type": "Feature", "properties": { "gid": "떎궗2442", "val": 1165.0, "total_val": 1969.0, "ratio_pct": 59.2 }, "geometry": { "type": "Polygon", "coordinates": [ [ [ 126.640480170037563, 37.474102238370818 ], [ 126.640376929184242, 37.48311492076364 ], [ 126.651686616739354, 37.483196670536472 ], [ 126.651788499697204, 37.474183961683366 ], [ 126.640480170037563, 37.474102238370818 ] ] ] } },
{ "type": "Feature", "properties": { "gid": "떎궗3139", "val": 1105.0, "total_val": 2432.0, "ratio_pct": 45.4 }, "geometry": { "type": "Polygon", "coordinates": [ [ [ 126.719920364231498, 37.447612912452044 ], [ 126.719826754234788, 37.456625814654338 ], [ 126.731132674479824, 37.456699915033731 ], [ 126.731224928250597, 37.447686988840424 ], [ 126.719920364231498, 37.447612912452044 ] ] ] } },
{ "type": "Feature", "properties": { "gid": "떎궗2640", "val": 1051.0, "total_val": 1919.0, "ratio_pct": 54.8 }, "geometry": { "type": "Polygon", "coordinates": [ [ [ 126.663297790546508, 37.456239090939974 ], [ 126.663197355002367, 37.465251853926269 ], [ 126.674504417451061, 37.465331387283264 ], [ 126.67460349626603, 37.456318598549473 ], [ 126.663297790546508, 37.456239090939974 ] ] ] } },
{ "type": "Feature", "properties": { "gid": "떎궗3149", "val": 1080.0, "total_val": 2007.0, "ratio_pct": 53.8 }, "geometry": { "type": "Polygon", "coordinates": [ [ [ 126.718982385537075, 37.537741305220912 ], [ 126.718888357685188, 37.546754067566098 ], [ 126.730207873456379, 37.546828408168054 ], [ 126.730300539029557, 37.537815621774989 ], [ 126.718982385537075, 37.537741305220912 ] ] ] } },
{ "type": "Feature", "properties": { "gid": "떎궗2639", "val": 1555.0, "total_val": 2889.0, "ratio_pct": 53.8 }, "geometry": { "type": "Polygon", "coordinates": [ [ [ 126.663398181373708, 37.447226313944007 ], [ 126.663297790546508, 37.456239090939974 ], [ 126.67460349626603, 37.456318598549473 ], [ 126.674702530967977, 37.447305795812085 ], [ 126.663398181373708, 37.447226313944007 ] ] ] } },
{ "type": "Feature", "properties": { "gid": "떎궗2540", "val": 1113.0, "total_val": 2543.0, "ratio_pct": 43.8 }, "geometry": { "type": "Polygon", "coordinates": [ [ [ 126.651992129543885, 37.456158501923191 ], [ 126.651890337291618, 37.465171238811841 ], [ 126.663197355002367, 37.465251853926269 ], [ 126.663297790546508, 37.456239090939974 ], [ 126.651992129543885, 37.456158501923191 ] ] ] } }
]
}
